{"type": "FeatureCollection", "features": [ {"type": "Feature", "properties": {"norad_id": 34058, "name": "COSMOS 2251 DEB", "group": "cosmos-2251-debris", "lat": -47.455663498931486, "lon": 160.617543481152, "alt_km": 1252.2805157708544, "timestamp": "2025-12-12T05:47:29.165015+00:00", "meta": {"OBJECT_NAME": "COSMOS 2251 DEB", "OBJECT_ID": "1993-036JV", "EPOCH": "2025-12-11T23:37:22.196352", "MEAN_MOTION": 13.56074074, "ECCENTRICITY": 0.03779839, "INCLINATION": 73.9314, "RA_OF_ASC_NODE": 179.3371, "ARG_OF_PERICENTER": 174.7181, "MEAN_ANOMALY": 317.9142, "EPHEMERIS_TYPE": 0, "CLASSIFICATION_TYPE": "U", "NORAD_CAT_ID": 34058, "ELEMENT_SET_NO": 999, "REV_AT_EPOCH": 83132, "BSTAR": 0.00094566475, "MEAN_MOTION_DOT": 1.029e-05, "MEAN_MOTION_DDOT": 0}, "tle": {"line1": "1 34058U 93036JV  25345.98428468  .00001029  00000+0  94566-3 0  9993", "line2": "2 34058  73.9314 179.3371 0377983 174.7181 317.9142 13.56074074831327"}}, "geometry": {"type": "Point", "coordinates": [160.617543481152, -47.455663498931486]}}, {"type": "Feature", "properties": {"norad_id": 34059, "name": "COSMOS 2251 DEB", "group": "cosmos-2251-debris", "lat": -5.750281956590172, "lon": -174.43461416053043, "alt_km": 719.2954136271201, "timestamp": "2025-12-12T05:47:29.165025+00:00", "meta": {"OBJECT_NAME": "COSMOS 2251 DEB", "OBJECT_ID": "1993-036JW", "EPOCH": "2025-12-11T23:54:04.161600", "MEAN_MOTION": 14.5294007, "ECCENTRICITY": 0.00186521, "INCLINATION": 74.0379, "RA_OF_ASC_NODE": 187.6798, "ARG_OF_PERICENTER": 265.0249, "MEAN_ANOMALY": 245.6863, "EPHEMERIS_TYPE": 0, "CLASSIFICATION_TYPE": "U", "NORAD_CAT_ID": 34059, "ELEMENT_SET_NO": 999, "REV_AT_EPOCH": 88448, "BSTAR": 0.0011420304, "MEAN_MOTION_DOT": 4.692e-05, "MEAN_MOTION_DDOT": 0}, "tle": {"line1": "1 34059U 93036JW  25345.99588150  .00004692  00000+0  11420-2 0  9996", "line2": "2 34059  74.0379 187.6798 0018652 265.0249 245.6863 14.52940070884487"}}, "geometry": {"type": "Point", "coordinates": [-174.43461416053043, -5.750281956590172]}}, {"type": "Feature", "properties": {"norad_id": 34061, "name": "COSMOS 2251 DEB", "group": "cosmos-2251-debris", "lat": 3.319182197418612, "lon": -94.73842923751941, "alt_km": 745.948632418048, "timestamp": "2025-12-12T05:47:29.165036+00:00", "meta": {"OBJECT_NAME": "COSMOS 2251 DEB", "OBJECT_ID": "1993-036JY", "EPOCH": "2025-12-11T21:48:04.025952", "MEAN_MOTION": 14.40354695, "ECCENTRICITY": 0.00205089, "INCLINATION": 74.0393, "RA_OF_ASC_NODE": 264.9257, "ARG_OF_PERICENTER": 341.9838, "MEAN_ANOMALY": 95.8576, "EPHEMERIS_TYPE": 0, "CLASSIFICATION_TYPE": "U", "NORAD_CAT_ID": 34061, "ELEMENT_SET_NO": 999, "REV_AT_EPOCH": 88168, "BSTAR": 0.00054249494, "MEAN_MOTION_DOT": 1.699e-05, "MEAN_MOTION_DDOT": 0}, "tle": {"line1": "1 34061U 93036JY  25345.90837993  .00001699  00000+0  54249-3 0  9993", "line2": "2 34061  74.0393 264.9257 0020508 341.9838  95.8576 14.40354695881680"}}, "geometry": {"type": "Point", "coordinates": [-94.73842923751941, 3.319182197418612]}}, {"type": "Feature", "properties": {"norad_id": 34062, "name": "COSMOS 2251 DEB", "group": "cosmos-2251-debris", "lat": 51.77467427788587, "lon": 160.34094546528704, "alt_km": 678.7308733908585, "timestamp": "2025-12-12T05:47:29.165046+00:00", "meta": {"OBJECT_NAME": "COSMOS 2251 DEB", "OBJECT_ID": "1993-036JZ", "EPOCH": "2025-12-11T16:37:01.236288", "MEAN_MOTION": 14.78595657, "ECCENTRICITY": 0.00748465, "INCLINATION": 74.0273, "RA_OF_ASC_NODE": 140.0957, "ARG_OF_PERICENTER": 219.3941, "MEAN_ANOMALY": 154.958, "EPHEMERIS_TYPE": 0, "CLASSIFICATION_TYPE": "U", "NORAD_CAT_ID": 34062, "ELEMENT_SET_NO": 999, "REV_AT_EPOCH": 88580, "BSTAR": 0.0041071286, "MEAN_MOTION_DOT": 0.00031613, "MEAN_MOTION_DDOT": 0}, "tle": {"line1": "1 34062U 93036JZ  25345.69237542  .00031613  00000+0  41071-2 0  9991", "line2": "2 34062  74.0273 140.0957 0074846 219.3941 154.9580 14.78595657885802"}}, "geometry": {"type": "Point", "coordinates": [160.34094546528704, 51.77467427788587]}}, {"type": "Feature", "properties": {"norad_id": 34064, "name": "COSMOS 2251 DEB", "group": "cosmos-2251-debris", "lat": -25.500479382151138, "lon": -96.0563201015573, "alt_km": 740.3651206852401, "timestamp": "2025-12-12T05:47:29.165056+00:00", "meta": {"OBJECT_NAME": "COSMOS 2251 DEB", "OBJECT_ID": "1993-036KB", "EPOCH": "2025-12-11T20:13:37.187328", "MEAN_MOTION": 14.42333381, "ECCENTRICITY": 0.00220868, "INCLINATION": 74.0328, "RA_OF_ASC_NODE": 272.5319, "ARG_OF_PERICENTER": 339.0401, "MEAN_ANOMALY": 86.0539, "EPHEMERIS_TYPE": 0, "CLASSIFICATION_TYPE": "U", "NORAD_CAT_ID": 34064, "ELEMENT_SET_NO": 999, "REV_AT_EPOCH": 88129, "BSTAR": 0.00088769267, "MEAN_MOTION_DOT": 2.915e-05, "MEAN_MOTION_DDOT": 0}, "tle": {"line1": "1 34064U 93036KB  25345.84279152  .00002915  00000+0  88769-3 0  9992", "line2": "2 34064  74.0328 272.5319 0022086 339.0401  86.0539 14.42333381881291"}}, "geometry": {"type": "Point", "coordinates": [-96.0563201015573, -25.500479382151138]}}, {"type": "Feature", "properties": {"norad_id": 34065, "name": "COSMOS 2251 DEB", "group": "cosmos-2251-debris", "lat": -5.465700466332794, "lon": -102.53049436265796, "alt_km": 756.5421338863562, "timestamp": "2025-12-12T05:47:29.165066+00:00", "meta": {"OBJECT_NAME": "COSMOS 2251 DEB", "OBJECT_ID": "1993-036KC", "EPOCH": "2025-12-11T21:50:40.302816", "MEAN_MOTION": 14.38061364, "ECCENTRICITY": 0.00163408, "INCLINATION": 74.0359, "RA_OF_ASC_NODE": 259.6487, "ARG_OF_PERICENTER": 357.3079, "MEAN_ANOMALY": 83.5989, "EPHEMERIS_TYPE": 0, "CLASSIFICATION_TYPE": "U", "NORAD_CAT_ID": 34065, "ELEMENT_SET_NO": 999, "REV_AT_EPOCH": 88193, "BSTAR": 0.000269291, "MEAN_MOTION_DOT": 7.9e-06, "MEAN_MOTION_DDOT": 0}, "tle": {"line1": "1 34065U 93036KC  25345.91018869  .00000790  00000+0  26929-3 0  9996", "line2": "2 34065  74.0359 259.6487 0016340 357.3079  83.5989 14.38061364881934"}}, "geometry": {"type": "Point", "coordinates": [-102.53049436265796, -5.465700466332794]}}, {"type": "Feature", "properties": {"norad_id": 34070, "name": "COSMOS 2251 DEB", "group": "cosmos-2251-debris", "lat": 11.12581831515343, "lon": -65.98920534261886, "alt_km": 634.1433052354932, "timestamp": "2025-12-12T05:47:29.165077+00:00", "meta": {"OBJECT_NAME": "COSMOS 2251 DEB", "OBJECT_ID": "1993-036KH", "EPOCH": "2025-12-11T08:00:44.093088", "MEAN_MOTION": 14.76951736, "ECCENTRICITY": 0.00187517, "INCLINATION": 74.0005, "RA_OF_ASC_NODE": 119.0276, "ARG_OF_PERICENTER": 234.7279, "MEAN_ANOMALY": 150.6467, "EPHEMERIS_TYPE": 0, "CLASSIFICATION_TYPE": "U", "NORAD_CAT_ID": 34070, "ELEMENT_SET_NO": 999, "REV_AT_EPOCH": 88590, "BSTAR": 0.0054241903, "MEAN_MOTION_DOT": 0.00038489, "MEAN_MOTION_DDOT": 0}, "tle": {"line1": "1 34070U 93036KH  25345.33384367  .00038489  00000+0  54242-2 0  9991", "line2": "2 34070  74.0005 119.0276 0018751 234.7279 150.6467 14.76951736885902"}}, "geometry": {"type": "Point", "coordinates": [-65.98920534261886, 11.12581831515343]}}, {"type": "Feature", "properties": {"norad_id": 34114, "name": "COSMOS 2251 DEB", "group": "cosmos-2251-debris", "lat": 50.856234929644, "lon": 65.33337825392915, "alt_km": 667.3134374665024, "timestamp": "2025-12-12T05:47:29.165087+00:00", "meta": {"OBJECT_NAME": "COSMOS 2251 DEB", "OBJECT_ID": "1993-036KK", "EPOCH": "2025-12-11T15:24:41.132736", "MEAN_MOTION": 14.5635536, "ECCENTRICITY": 0.0047375, "INCLINATION": 74.0587, "RA_OF_ASC_NODE": 45.9098, "ARG_OF_PERICENTER": 41.1746, "MEAN_ANOMALY": 112.4404, "EPHEMERIS_TYPE": 0, "CLASSIFICATION_TYPE": "U", "NORAD_CAT_ID": 34114, "ELEMENT_SET_NO": 999, "REV_AT_EPOCH": 87785, "BSTAR": 0.0024451648, "MEAN_MOTION_DOT": 0.00010997, "MEAN_MOTION_DDOT": 0}, "tle": {"line1": "1 34114U 93036KK  25345.64214274  .00010997  00000+0  24452-2 0  9997", "line2": "2 34114  74.0587  45.9098 0047375  41.1746 112.4404 14.56355360877859"}}, "geometry": {"type": "Point", "coordinates": [65.33337825392915, 50.856234929644]}}, {"type": "Feature", "properties": {"norad_id": 34115, "name": "COSMOS 2251 DEB", "group": "cosmos-2251-debris", "lat": 51.49173422316864, "lon": 41.794765882893245, "alt_km": 615.4949677544291, "timestamp": "2025-12-12T05:47:29.165097+00:00", "meta": {"OBJECT_NAME": "COSMOS 2251 DEB", "OBJECT_ID": "1993-036KL", "EPOCH": "2025-12-11T16:14:45.710880", "MEAN_MOTION": 14.79461388, "ECCENTRICITY": 0.00284391, "INCLINATION": 74.0059, "RA_OF_ASC_NODE": 244.037, "ARG_OF_PERICENTER": 67.9172, "MEAN_ANOMALY": 292.5019, "EPHEMERIS_TYPE": 0, "CLASSIFICATION_TYPE": "U", "NORAD_CAT_ID": 34115, "ELEMENT_SET_NO": 999, "REV_AT_EPOCH": 89396, "BSTAR": 0.0016339412, "MEAN_MOTION_DOT": 0.00012277, "MEAN_MOTION_DDOT": 0}, "tle": {"line1": "1 34115U 93036KL  25345.67691795  .00012277  00000+0  16339-2 0  9996", "line2": "2 34115  74.0059 244.0370 0028439  67.9172 292.5019 14.79461388893963"}}, "geometry": {"type": "Point", "coordinates": [41.794765882893245, 51.49173422316864]}}, {"type": "Feature", "properties": {"norad_id": 34116, "name": "COSMOS 2251 DEB", "group": "cosmos-2251-debris", "lat": 41.90026368801767, "lon": -11.161607337543483, "alt_km": 716.9673764030213, "timestamp": "2025-12-12T05:47:29.165108+00:00", "meta": {"OBJECT_NAME": "COSMOS 2251 DEB", "OBJECT_ID": "1993-036KM", "EPOCH": "2025-12-12T00:46:15.502368", "MEAN_MOTION": 14.52967665, "ECCENTRICITY": 0.00120218, "INCLINATION": 74.0404, "RA_OF_ASC_NODE": 184.1112, "ARG_OF_PERICENTER": 260.2464, "MEAN_ANOMALY": 222.0526, "EPHEMERIS_TYPE": 0, "CLASSIFICATION_TYPE": "U", "NORAD_CAT_ID": 34116, "ELEMENT_SET_NO": 999, "REV_AT_EPOCH": 88476, "BSTAR": 0.0010719548, "MEAN_MOTION_DOT": 4.399e-05, "MEAN_MOTION_DDOT": 0}, "tle": {"line1": "1 34116U 93036KM  25346.03212387  .00004399  00000+0  10720-2 0  9998", "line2": "2 34116  74.0404 184.1112 0012021 260.2464 222.0526 14.52967665884767"}}, "geometry": {"type": "Point", "coordinates": [-11.161607337543483, 41.90026368801767]}}]}